OBJECT C                
1 60747U 24153C   24256.18519102  .00025643  00000+0  15681-2 0  9997
2 60747  97.6161  13.6370 0016412 238.8749 121.0871 15.10112593  2113